[{"OBJECT_NAME":"STARLINK-31408","OBJECT_ID":"2024-049K","EPOCH":"2026-03-09T05:42:37.057824","MEAN_MOTION":15.27566294,"ECCENTRICITY":0.00010396,"INCLINATION":42.9985,"RA_OF_ASC_NODE":146.3745,"ARG_OF_PERICENTER":282.3363,"MEAN_ANOMALY":77.7372,"EPHEMERIS_TYPE":0,"CLASSIFICATION_TYPE":"U","NORAD_CAT_ID":59240,"ELEMENT_SET_NO":999,"REV_AT_EPOCH":11233,"BSTAR":-2.12307e-7,"MEAN_MOTION_DOT":-2.68e-6,"MEAN_MOTION_DDOT":0},{"OBJECT_NAME":"COSMOS 2576","OBJECT_ID":"2024-092A","EPOCH":"2026-03-09T19:49:29.705664","MEAN_MOTION":15.27760963,"ECCENTRICITY":0.0005946,"INCLINATION":97.4253,"RA_OF_ASC_NODE":186.0053,"ARG_OF_PERICENTER":159.7731,"MEAN_ANOMALY":200.3745,"EPHEMERIS_TYPE":0,"CLASSIFICATION_TYPE":"U","NORAD_CAT_ID":59773,"ELEMENT_SET_NO":999,"REV_AT_EPOCH":10127,"BSTAR":0.00056283,"MEAN_MOTION_DOT":0.00015211,"MEAN_MOTION_DDOT":0}]
